{"type":"FeatureCollection","features":[{"type":"Feature","properties":{"ad":"Çangalçeşme Yolu"},"geometry":{"type":"Point","coordinates":[28.710481,41.2151]}},{"type":"Feature","properties":{"ad":"Bosna Caddesi"},"geometry":{"type":"Point","coordinates":[28.744664,41.190516]}},{"type":"Feature","properties":{"ad":null},"geometry":{"type":"Point","coordinates":[28.679617,41.339881]}},{"type":"Feature","properties":{"ad":"Arnavutköy Peronlar"},"geometry":{"type":"Point","coordinates":[28.750252,41.178407]}},{"type":"Feature","properties":{"ad":"Çangalçeşme Yolu"},"geometry":{"type":"Point","coordinates":[28.710626,41.215304]}},{"type":"Feature","properties":{"ad":"Fatih Mahallesi"},"geometry":{"type":"Point","coordinates":[28.706063,41.21603]}},{"type":"Feature","properties":{"ad":"Çangalçeşme Yolu"},"geometry":{"type":"Point","coordinates":[28.705956,41.216152]}},{"type":"Feature","properties":{"ad":"İstanbul Havalimanı"},"geometry":{"type":"Point","coordinates":[28.742549,41.259226]}},{"type":"Feature","properties":{"ad":"Yol Bakım"},"geometry":{"type":"Point","coordinates":[28.759179,41.17075]}},{"type":"Feature","properties":{"ad":"Yol Bakım"},"geometry":{"type":"Point","coordinates":[28.759004,41.171239]}},{"type":"Feature","properties":{"ad":"Boğazköy Yolu"},"geometry":{"type":"Point","coordinates":[28.75294,41.173898]}},{"type":"Feature","properties":{"ad":"Boğazköy Yolu"},"geometry":{"type":"Point","coordinates":[28.753309,41.174504]}},{"type":"Feature","properties":{"ad":"Arnavutköy Merkez"},"geometry":{"type":"Point","coordinates":[28.74222,41.182548]}},{"type":"Feature","properties":{"ad":"İstiklal Mahallesi"},"geometry":{"type":"Point","coordinates":[28.760912,41.179365]}},{"type":"Feature","properties":{"ad":"Şirindere Camii"},"geometry":{"type":"Point","coordinates":[28.752765,41.182428]}},{"type":"Feature","properties":{"ad":"Şirindere Camii"},"geometry":{"type":"Point","coordinates":[28.753103,41.182327]}},{"type":"Feature","properties":{"ad":"Necip Fazıl Caddesi"},"geometry":{"type":"Point","coordinates":[28.743032,41.184353]}},{"type":"Feature","properties":{"ad":"Arnavutköy"},"geometry":{"type":"Point","coordinates":[28.741108,41.184745]}},{"type":"Feature","properties":{"ad":"Redif Sokak"},"geometry":{"type":"Point","coordinates":[28.739661,41.186001]}},{"type":"Feature","properties":{"ad":"Osmangazi Caddesi"},"geometry":{"type":"Point","coordinates":[28.736779,41.185612]}},{"type":"Feature","properties":{"ad":"Mehmet Akif Caddesi"},"geometry":{"type":"Point","coordinates":[28.73918,41.183909]}},{"type":"Feature","properties":{"ad":"Fatih Caddesi"},"geometry":{"type":"Point","coordinates":[28.746081,41.180116]}},{"type":"Feature","properties":{"ad":"Fatih Caddesi"},"geometry":{"type":"Point","coordinates":[28.74536,41.180372]}},{"type":"Feature","properties":{"ad":"Arnavutköy Devlet Hastanesi"},"geometry":{"type":"Point","coordinates":[28.747237,41.178394]}},{"type":"Feature","properties":{"ad":"Arnavutköy Devlet Hastanesi"},"geometry":{"type":"Point","coordinates":[28.747202,41.178009]}},{"type":"Feature","properties":{"ad":"Çamlık"},"geometry":{"type":"Point","coordinates":[28.772377,41.162629]}},{"type":"Feature","properties":{"ad":"Çamlık"},"geometry":{"type":"Point","coordinates":[28.772695,41.162056]}},{"type":"Feature","properties":{"ad":"Boğazköy Tesisler"},"geometry":{"type":"Point","coordinates":[28.776495,41.160722]}},{"type":"Feature","properties":{"ad":"Balcılar"},"geometry":{"type":"Point","coordinates":[28.781092,41.160227]}},{"type":"Feature","properties":{"ad":"Balcılar"},"geometry":{"type":"Point","coordinates":[28.781048,41.159931]}},{"type":"Feature","properties":{"ad":"Orman İşletmesi"},"geometry":{"type":"Point","coordinates":[28.787707,41.155062]}},{"type":"Feature","properties":{"ad":"Kayabaşı Yolu"},"geometry":{"type":"Point","coordinates":[28.787505,41.151465]}},{"type":"Feature","properties":{"ad":"Kayabaşı Yolu"},"geometry":{"type":"Point","coordinates":[28.787166,41.151392]}},{"type":"Feature","properties":{"ad":"Fenertepe"},"geometry":{"type":"Point","coordinates":[28.791103,41.147992]}},{"type":"Feature","properties":{"ad":"Fenertepe Yolu"},"geometry":{"type":"Point","coordinates":[28.794599,41.145669]}},{"type":"Feature","properties":{"ad":"Sincanlar"},"geometry":{"type":"Point","coordinates":[28.800351,41.142345]}},{"type":"Feature","properties":{"ad":"Arnavutköy Beşyol"},"geometry":{"type":"Point","coordinates":[28.669006,41.268613]}},{"type":"Feature","properties":{"ad":"Akçaburgaz"},"geometry":{"type":"Point","coordinates":[28.635218,41.09195]}},{"type":"Feature","properties":{"ad":"Akçaburgaz"},"geometry":{"type":"Point","coordinates":[28.634262,41.090983]}},{"type":"Feature","properties":{"ad":"İstanbul Havalimanı"},"geometry":{"type":"Point","coordinates":[28.742579,41.258818]}},{"type":"Feature","properties":{"ad":"Havalimanı Taksi Kooperatifi"},"geometry":{"type":"Point","coordinates":[28.751771,41.248008]}},{"type":"Feature","properties":{"ad":"Vıp Terminal-mülki İdare-emniyet"},"geometry":{"type":"Point","coordinates":[28.749796,41.248831]}},{"type":"Feature","properties":{"ad":"İstanbul Havalimanı Garaj"},"geometry":{"type":"Point","coordinates":[28.759056,41.251535]}},{"type":"Feature","properties":{"ad":"Arnavutköy İlkokulu"},"geometry":{"type":"Point","coordinates":[28.741583,41.185081]}},{"type":"Feature","properties":{"ad":"Fatih Caddesi"},"geometry":{"type":"Point","coordinates":[28.745627,41.180404]}},{"type":"Feature","properties":{"ad":"Ayazma İlkokulu"},"geometry":{"type":"Point","coordinates":[28.761648,41.186354]}},{"type":"Feature","properties":{"ad":"Osmanlı Camii"},"geometry":{"type":"Point","coordinates":[28.742221,41.188147]}},{"type":"Feature","properties":{"ad":"Osmanlı Camii"},"geometry":{"type":"Point","coordinates":[28.742389,41.188065]}},{"type":"Feature","properties":{"ad":"Boğazköy"},"geometry":{"type":"Point","coordinates":[28.770647,41.180795]}},{"type":"Feature","properties":{"ad":"Ayazma"},"geometry":{"type":"Point","coordinates":[28.764933,41.185419]}},{"type":"Feature","properties":{"ad":"Merkez Mahallesi"},"geometry":{"type":"Point","coordinates":[28.74134,41.185527]}},{"type":"Feature","properties":{"ad":"Türksoy Caddesi"},"geometry":{"type":"Point","coordinates":[28.769904,41.183198]}},{"type":"Feature","properties":{"ad":"Türksoy Caddesi"},"geometry":{"type":"Point","coordinates":[28.769753,41.183183]}},{"type":"Feature","properties":{"ad":"Ayazma"},"geometry":{"type":"Point","coordinates":[28.764924,41.185499]}},{"type":"Feature","properties":{"ad":"Gaziosmanpaşa Caddesi"},"geometry":{"type":"Point","coordinates":[28.745224,41.181812]}},{"type":"Feature","properties":{"ad":"Boğazköy"},"geometry":{"type":"Point","coordinates":[28.770531,41.181076]}},{"type":"Feature","properties":{"ad":"Ayazma İlkokulu"},"geometry":{"type":"Point","coordinates":[28.76169,41.186487]}},{"type":"Feature","properties":{"ad":"Piknik Alanı-1"},"geometry":{"type":"Point","coordinates":[28.77584,41.144325]}},{"type":"Feature","properties":{"ad":"Dere"},"geometry":{"type":"Point","coordinates":[28.772326,41.140471]}},{"type":"Feature","properties":{"ad":"Kayabaşı Yolu"},"geometry":{"type":"Point","coordinates":[28.786344,41.152141]}},{"type":"Feature","properties":{"ad":"Piknik Alanı-2"},"geometry":{"type":"Point","coordinates":[28.761761,41.135357]}},{"type":"Feature","properties":{"ad":"Çamlıca Mahallesi"},"geometry":{"type":"Point","coordinates":[28.768421,41.138756]}},{"type":"Feature","properties":{"ad":"İkinci Camii"},"geometry":{"type":"Point","coordinates":[28.746848,41.184381]}},{"type":"Feature","properties":{"ad":"Şirindere"},"geometry":{"type":"Point","coordinates":[28.756883,41.186024]}},{"type":"Feature","properties":{"ad":"Bolluca Boğazköy Yolu"},"geometry":{"type":"Point","coordinates":[28.771746,41.187511]}},{"type":"Feature","properties":{"ad":"Şirindere"},"geometry":{"type":"Point","coordinates":[28.756967,41.185863]}},{"type":"Feature","properties":{"ad":"Bolluca Mermer Fabrikası"},"geometry":{"type":"Point","coordinates":[28.768181,41.193169]}},{"type":"Feature","properties":{"ad":"Bolluca Boğazköy Yolu"},"geometry":{"type":"Point","coordinates":[28.771463,41.187652]}},{"type":"Feature","properties":{"ad":"Anadolu Mahallesi"},"geometry":{"type":"Point","coordinates":[28.749242,41.185057]}},{"type":"Feature","properties":{"ad":"Boğazköy Köyiçi"},"geometry":{"type":"Point","coordinates":[28.771882,41.18141]}},{"type":"Feature","properties":{"ad":"İsmet İnönü Caddesi"},"geometry":{"type":"Point","coordinates":[28.77227,41.184603]}},{"type":"Feature","properties":{"ad":"Aşık Veysel İlkokulu"},"geometry":{"type":"Point","coordinates":[28.755102,41.185988]}},{"type":"Feature","properties":{"ad":"Şükür Sokak"},"geometry":{"type":"Point","coordinates":[28.744515,41.185033]}},{"type":"Feature","properties":{"ad":"İkinci Camii"},"geometry":{"type":"Point","coordinates":[28.746949,41.184244]}},{"type":"Feature","properties":{"ad":"Bolluca Mermer Fabrikası"},"geometry":{"type":"Point","coordinates":[28.768948,41.192046]}},{"type":"Feature","properties":{"ad":"Boğazköy Köyiçi"},"geometry":{"type":"Point","coordinates":[28.773069,41.181439]}},{"type":"Feature","properties":{"ad":"Bolluca Mahallesi"},"geometry":{"type":"Point","coordinates":[28.769091,41.201563]}},{"type":"Feature","properties":{"ad":"Aşık Veysel İlkokulu"},"geometry":{"type":"Point","coordinates":[28.752187,41.185947]}},{"type":"Feature","properties":{"ad":"İsmet İnönü Caddesi"},"geometry":{"type":"Point","coordinates":[28.771985,41.184461]}},{"type":"Feature","properties":{"ad":"Anadolu Mahallesi"},"geometry":{"type":"Point","coordinates":[28.749387,41.185004]}},{"type":"Feature","properties":{"ad":"Borsa İstanbul Anadolu İmam Hatip Lisesi"},"geometry":{"type":"Point","coordinates":[28.710689,41.177751]}},{"type":"Feature","properties":{"ad":"B. Blok"},"geometry":{"type":"Point","coordinates":[28.71225,41.20715]}},{"type":"Feature","properties":{"ad":"Bağlar Meydan"},"geometry":{"type":"Point","coordinates":[28.715068,41.198894]}},{"type":"Feature","properties":{"ad":"Karlıbayır Muhtarlığı"},"geometry":{"type":"Point","coordinates":[28.713904,41.181826]}},{"type":"Feature","properties":{"ad":"Mehmet Akif Ersoy Camii"},"geometry":{"type":"Point","coordinates":[28.702753,41.208682]}},{"type":"Feature","properties":{"ad":"Gökçeağaç Sokak"},"geometry":{"type":"Point","coordinates":[28.696372,41.216826]}},{"type":"Feature","properties":{"ad":"Gökçeağaç Sokak"},"geometry":{"type":"Point","coordinates":[28.696394,41.217009]}},{"type":"Feature","properties":{"ad":"Şehitlik Camii"},"geometry":{"type":"Point","coordinates":[28.706355,41.185569]}},{"type":"Feature","properties":{"ad":"Şehitlik Camii"},"geometry":{"type":"Point","coordinates":[28.706515,41.185487]}},{"type":"Feature","properties":{"ad":"Toki Park"},"geometry":{"type":"Point","coordinates":[28.708228,41.208623]}},{"type":"Feature","properties":{"ad":"Karlıbayır"},"geometry":{"type":"Point","coordinates":[28.720045,41.182498]}},{"type":"Feature","properties":{"ad":"Mehmet Akif Ersoy Camii"},"geometry":{"type":"Point","coordinates":[28.703388,41.208512]}},{"type":"Feature","properties":{"ad":"Toki Park"},"geometry":{"type":"Point","coordinates":[28.70836,41.208199]}},{"type":"Feature","properties":{"ad":"Köroğlu Ortaokulu"},"geometry":{"type":"Point","coordinates":[28.711036,41.181526]}},{"type":"Feature","properties":{"ad":"Çocuk Parkı"},"geometry":{"type":"Point","coordinates":[28.70826,41.195071]}},{"type":"Feature","properties":{"ad":"Karlıbayır"},"geometry":{"type":"Point","coordinates":[28.720008,41.18262]}},{"type":"Feature","properties":{"ad":"Bağlarbaşı Caddesi"},"geometry":{"type":"Point","coordinates":[28.713978,41.204697]}},{"type":"Feature","properties":{"ad":"Necip Fazıl Kısakürek"},"geometry":{"type":"Point","coordinates":[28.70745,41.19245]}},{"type":"Feature","properties":{"ad":"Göçmen Kent Mahallesi"},"geometry":{"type":"Point","coordinates":[28.706609,41.176418]}},{"type":"Feature","properties":{"ad":"Çocuk Parkı"},"geometry":{"type":"Point","coordinates":[28.708367,41.194722]}},{"type":"Feature","properties":{"ad":"Doğa Sokak"},"geometry":{"type":"Point","coordinates":[28.697185,41.211005]}},{"type":"Feature","properties":{"ad":"Tankcılar Kooperatif"},"geometry":{"type":"Point","coordinates":[28.696297,41.214961]}},{"type":"Feature","properties":{"ad":"Meşetarla Caddesi"},"geometry":{"type":"Point","coordinates":[28.698454,41.22028]}},{"type":"Feature","properties":{"ad":"Göçmen Kent Mahallesi"},"geometry":{"type":"Point","coordinates":[28.706663,41.176327]}},{"type":"Feature","properties":{"ad":"Yavuz Sokak"},"geometry":{"type":"Point","coordinates":[28.707232,41.189617]}},{"type":"Feature","properties":{"ad":"Köroğlu Ortaokulu"},"geometry":{"type":"Point","coordinates":[28.710996,41.18139]}},{"type":"Feature","properties":{"ad":"Toki Kuşdil Sokak"},"geometry":{"type":"Point","coordinates":[28.710684,41.209906]}},{"type":"Feature","properties":{"ad":"Çavuşbaşı Sokak"},"geometry":{"type":"Point","coordinates":[28.715738,41.200962]}},{"type":"Feature","properties":{"ad":"Karlıbayır Caddesi"},"geometry":{"type":"Point","coordinates":[28.716493,41.18242]}},{"type":"Feature","properties":{"ad":"Tansu Sokak"},"geometry":{"type":"Point","coordinates":[28.692589,41.224119]}},{"type":"Feature","properties":{"ad":"Karlıbayır Muhtarlığı"},"geometry":{"type":"Point","coordinates":[28.714905,41.182046]}},{"type":"Feature","properties":{"ad":"Tankcılar Kooperatif"},"geometry":{"type":"Point","coordinates":[28.696166,41.214909]}},{"type":"Feature","properties":{"ad":"B. Blok"},"geometry":{"type":"Point","coordinates":[28.711563,41.207436]}},{"type":"Feature","properties":{"ad":"Yavuz Sokak"},"geometry":{"type":"Point","coordinates":[28.707378,41.189458]}},{"type":"Feature","properties":{"ad":"Haraççı Caddesi"},"geometry":{"type":"Point","coordinates":[28.703318,41.176376]}},{"type":"Feature","properties":{"ad":"Taşoluk Anadolu Lisesi"},"geometry":{"type":"Point","coordinates":[28.705286,41.207971]}},{"type":"Feature","properties":{"ad":"Doğa Sokak"},"geometry":{"type":"Point","coordinates":[28.697043,41.210983]}},{"type":"Feature","properties":{"ad":"Borsa İstanbul Anadolu İmam Hatip Lisesi"},"geometry":{"type":"Point","coordinates":[28.71017,41.177671]}},{"type":"Feature","properties":{"ad":"Necip Fazıl Kısakürek"},"geometry":{"type":"Point","coordinates":[28.707317,41.192667]}},{"type":"Feature","properties":{"ad":"Karlıbayır Caddesi"},"geometry":{"type":"Point","coordinates":[28.716558,41.182628]}},{"type":"Feature","properties":{"ad":"Çavuşbaşı Sokak"},"geometry":{"type":"Point","coordinates":[28.715536,41.201314]}},{"type":"Feature","properties":{"ad":"Haraççı Caddesi"},"geometry":{"type":"Point","coordinates":[28.703286,41.176473]}},{"type":"Feature","properties":{"ad":"Bosna Caddesi"},"geometry":{"type":"Point","coordinates":[28.744309,41.19025]}},{"type":"Feature","properties":{"ad":"Yıldırım Beyazıt Caddesi"},"geometry":{"type":"Point","coordinates":[28.758188,41.194919]}},{"type":"Feature","properties":{"ad":"Sevban Mehmet Caddesi"},"geometry":{"type":"Point","coordinates":[28.732796,41.208325]}},{"type":"Feature","properties":{"ad":"Bolluca"},"geometry":{"type":"Point","coordinates":[28.76419,41.197731]}},{"type":"Feature","properties":{"ad":"Arnavutköy Su Deposu"},"geometry":{"type":"Point","coordinates":[28.753062,41.194258]}},{"type":"Feature","properties":{"ad":"Arnavutköy Polis Okulu"},"geometry":{"type":"Point","coordinates":[28.735245,41.210047]}},{"type":"Feature","properties":{"ad":"Mustafa Kemal"},"geometry":{"type":"Point","coordinates":[28.749501,41.192331]}},{"type":"Feature","properties":{"ad":"Bolluca Yolu"},"geometry":{"type":"Point","coordinates":[28.761947,41.195898]}},{"type":"Feature","properties":{"ad":"Çardaktepe"},"geometry":{"type":"Point","coordinates":[28.72856,41.205278]}},{"type":"Feature","properties":{"ad":"Hazreti Ömer Camii"},"geometry":{"type":"Point","coordinates":[28.72788,41.18609]}},{"type":"Feature","properties":{"ad":"Kiptaş Konutları"},"geometry":{"type":"Point","coordinates":[28.725004,41.185034]}},{"type":"Feature","properties":{"ad":"Tümer Sokak"},"geometry":{"type":"Point","coordinates":[28.704022,41.180294]}},{"type":"Feature","properties":{"ad":"Erdem Bayazıt Kütüphanesi"},"geometry":{"type":"Point","coordinates":[28.702508,41.178701]}},{"type":"Feature","properties":{"ad":"Cemal Reşit Rey İlkokulu"},"geometry":{"type":"Point","coordinates":[28.735671,41.183979]}},{"type":"Feature","properties":{"ad":"Cemal Reşit Rey İlkokulu"},"geometry":{"type":"Point","coordinates":[28.735466,41.184152]}},{"type":"Feature","properties":{"ad":"Haraççı"},"geometry":{"type":"Point","coordinates":[28.702157,41.177439]}},{"type":"Feature","properties":{"ad":"Sazlıbosna Yolu"},"geometry":{"type":"Point","coordinates":[28.706051,41.182733]}},{"type":"Feature","properties":{"ad":"Kiptaş Konutları"},"geometry":{"type":"Point","coordinates":[28.725192,41.184719]}},{"type":"Feature","properties":{"ad":"Hazreti Ömer Camii"},"geometry":{"type":"Point","coordinates":[28.728055,41.186293]}},{"type":"Feature","properties":{"ad":"Sazlıbosna Yolu"},"geometry":{"type":"Point","coordinates":[28.706531,41.18279]}},{"type":"Feature","properties":{"ad":"Haraççı"},"geometry":{"type":"Point","coordinates":[28.702325,41.177438]}},{"type":"Feature","properties":{"ad":"Kozlar"},"geometry":{"type":"Point","coordinates":[28.731356,41.185957]}},{"type":"Feature","properties":{"ad":"Erdem Bayazıt Kütüphanesi"},"geometry":{"type":"Point","coordinates":[28.702331,41.178678]}},{"type":"Feature","properties":{"ad":"Tümer Sokak"},"geometry":{"type":"Point","coordinates":[28.704492,41.180446]}},{"type":"Feature","properties":{"ad":"Kozlar"},"geometry":{"type":"Point","coordinates":[28.731235,41.18616]}},{"type":"Feature","properties":{"ad":"Fatih Caddesi"},"geometry":{"type":"Point","coordinates":[28.713046,41.21172]}},{"type":"Feature","properties":{"ad":"Terkos Yolu"},"geometry":{"type":"Point","coordinates":[28.707307,41.225287]}},{"type":"Feature","properties":{"ad":"Çamlık Mahallesi"},"geometry":{"type":"Point","coordinates":[28.708649,41.221066]}},{"type":"Feature","properties":{"ad":"Mesire Yeri"},"geometry":{"type":"Point","coordinates":[28.696734,41.23753]}},{"type":"Feature","properties":{"ad":"Çamlıktepe"},"geometry":{"type":"Point","coordinates":[28.701835,41.231551]}},{"type":"Feature","properties":{"ad":"Dereyolu"},"geometry":{"type":"Point","coordinates":[28.741322,41.211799]}},{"type":"Feature","properties":{"ad":"Bolluca Merkez"},"geometry":{"type":"Point","coordinates":[28.766158,41.198246]}},{"type":"Feature","properties":{"ad":"İmrahor Mezarlık"},"geometry":{"type":"Point","coordinates":[28.751076,41.212882]}},{"type":"Feature","properties":{"ad":"Suatlar Dörtyol"},"geometry":{"type":"Point","coordinates":[28.74244,41.198663]}},{"type":"Feature","properties":{"ad":"Kıbrıs Caddesi"},"geometry":{"type":"Point","coordinates":[28.730885,41.203208]}},{"type":"Feature","properties":{"ad":"Dereyolu"},"geometry":{"type":"Point","coordinates":[28.741157,41.211942]}},{"type":"Feature","properties":{"ad":"Dereboyu"},"geometry":{"type":"Point","coordinates":[28.756547,41.207359]}},{"type":"Feature","properties":{"ad":"İmrahor Atatürk Caddesi"},"geometry":{"type":"Point","coordinates":[28.747818,41.214179]}},{"type":"Feature","properties":{"ad":"Mavi Göl Caddesi"},"geometry":{"type":"Point","coordinates":[28.772253,41.205052]}},{"type":"Feature","properties":{"ad":"Şeyh Şamil Camii"},"geometry":{"type":"Point","coordinates":[28.757837,41.205095]}},{"type":"Feature","properties":{"ad":"Bolluca Merkez"},"geometry":{"type":"Point","coordinates":[28.766001,41.198376]}},{"type":"Feature","properties":{"ad":"Suatlar"},"geometry":{"type":"Point","coordinates":[28.74266,41.202908]}},{"type":"Feature","properties":{"ad":"Örfi Çetinkaya Mesleki Ve Teknik Anadolu Lisesi"},"geometry":{"type":"Point","coordinates":[28.737925,41.199326]}},{"type":"Feature","properties":{"ad":"1398 Sokak"},"geometry":{"type":"Point","coordinates":[28.742441,41.20752]}},{"type":"Feature","properties":{"ad":"Mavi Göl Caddesi"},"geometry":{"type":"Point","coordinates":[28.77278,41.205054]}},{"type":"Feature","properties":{"ad":"Sabri Akın İlkokulu"},"geometry":{"type":"Point","coordinates":[28.764167,41.199027]}},{"type":"Feature","properties":{"ad":"Bahar Caddesi"},"geometry":{"type":"Point","coordinates":[28.754318,41.211161]}},{"type":"Feature","properties":{"ad":"Abdullah Gül Caddesi"},"geometry":{"type":"Point","coordinates":[28.76007,41.202935]}},{"type":"Feature","properties":{"ad":"İmrahor Mahallesi"},"geometry":{"type":"Point","coordinates":[28.745065,41.214613]}},{"type":"Feature","properties":{"ad":"Bahar Caddesi"},"geometry":{"type":"Point","coordinates":[28.753884,41.211154]}},{"type":"Feature","properties":{"ad":"İmrahor Mahallesi"},"geometry":{"type":"Point","coordinates":[28.745225,41.214422]}},{"type":"Feature","properties":{"ad":"Mehmet Akif Ersoy Camii"},"geometry":{"type":"Point","coordinates":[28.772492,41.208341]}},{"type":"Feature","properties":{"ad":"Bolluca Mahallesi"},"geometry":{"type":"Point","coordinates":[28.768938,41.201813]}},{"type":"Feature","properties":{"ad":"Akşemsettin Caddesi"},"geometry":{"type":"Point","coordinates":[28.743215,41.200779]}},{"type":"Feature","properties":{"ad":"983 Sokak"},"geometry":{"type":"Point","coordinates":[28.732773,41.201774]}},{"type":"Feature","properties":{"ad":"Şeyh Şamil Camii"},"geometry":{"type":"Point","coordinates":[28.75767,41.204913]}},{"type":"Feature","properties":{"ad":"Abdullah Gül Caddesi"},"geometry":{"type":"Point","coordinates":[28.759994,41.202762]}},{"type":"Feature","properties":{"ad":"Dereboyu"},"geometry":{"type":"Point","coordinates":[28.756645,41.207698]}},{"type":"Feature","properties":{"ad":"Sabri Akın İlkokulu"},"geometry":{"type":"Point","coordinates":[28.764065,41.199649]}},{"type":"Feature","properties":{"ad":"Sokullu Mehmetpaşa Caddesi"},"geometry":{"type":"Point","coordinates":[28.742456,41.205355]}},{"type":"Feature","properties":{"ad":"İmrahor Atatürk Caddesi"},"geometry":{"type":"Point","coordinates":[28.747644,41.214424]}},{"type":"Feature","properties":{"ad":"İmrahor Mezarlık"},"geometry":{"type":"Point","coordinates":[28.750981,41.212723]}},{"type":"Feature","properties":{"ad":"Leylak Sokak"},"geometry":{"type":"Point","coordinates":[28.696358,41.228443]}},{"type":"Feature","properties":{"ad":"Toygar Sokak"},"geometry":{"type":"Point","coordinates":[28.687785,41.226118]}},{"type":"Feature","properties":{"ad":"Taşoluk Yeşil Cami"},"geometry":{"type":"Point","coordinates":[28.719694,41.192329]}},{"type":"Feature","properties":{"ad":"Kuşkaya"},"geometry":{"type":"Point","coordinates":[28.708584,41.198481]}},{"type":"Feature","properties":{"ad":"Mehmet Akif Ersoy Camii"},"geometry":{"type":"Point","coordinates":[28.703855,41.208879]}},{"type":"Feature","properties":{"ad":"Yeni Yeşil Camii"},"geometry":{"type":"Point","coordinates":[28.719183,41.191883]}},{"type":"Feature","properties":{"ad":"Bağlar Meydan"},"geometry":{"type":"Point","coordinates":[28.713474,41.198689]}},{"type":"Feature","properties":{"ad":"Trabzon Mahallesi"},"geometry":{"type":"Point","coordinates":[28.690452,41.227681]}},{"type":"Feature","properties":{"ad":"Fatih Mahallesi"},"geometry":{"type":"Point","coordinates":[28.697784,41.224722]}},{"type":"Feature","properties":{"ad":"Meşetarla Caddesi"},"geometry":{"type":"Point","coordinates":[28.698801,41.220377]}},{"type":"Feature","properties":{"ad":"Trabzon Caddesi"},"geometry":{"type":"Point","coordinates":[28.695734,41.230124]}},{"type":"Feature","properties":{"ad":"Taşoluk Merkez Cami"},"geometry":{"type":"Point","coordinates":[28.716247,41.196613]}},{"type":"Feature","properties":{"ad":"Adnan Menderes Mahallesi"},"geometry":{"type":"Point","coordinates":[28.703663,41.217926]}},{"type":"Feature","properties":{"ad":"Mehmet Akif Ersoy Camii"},"geometry":{"type":"Point","coordinates":[28.704027,41.208924]}},{"type":"Feature","properties":{"ad":"Adnan Menderes Caddesi"},"geometry":{"type":"Point","coordinates":[28.704791,41.200199]}},{"type":"Feature","properties":{"ad":"Kızılağaç Sokak"},"geometry":{"type":"Point","coordinates":[28.682679,41.225262]}},{"type":"Feature","properties":{"ad":"Anafartalar Ortaokulu"},"geometry":{"type":"Point","coordinates":[28.723552,41.195131]}},{"type":"Feature","properties":{"ad":"Adnan Menderes Caddesi"},"geometry":{"type":"Point","coordinates":[28.704637,41.199995]}},{"type":"Feature","properties":{"ad":"Anafartalar Ortaokulu"},"geometry":{"type":"Point","coordinates":[28.723442,41.194822]}},{"type":"Feature","properties":{"ad":"Çimentepe"},"geometry":{"type":"Point","coordinates":[28.704496,41.21259]}},{"type":"Feature","properties":{"ad":"Yeldeğirmeni"},"geometry":{"type":"Point","coordinates":[28.715282,41.193342]}},{"type":"Feature","properties":{"ad":"Çangalçeşme"},"geometry":{"type":"Point","coordinates":[28.706816,41.218306]}},{"type":"Feature","properties":{"ad":"Trabzon Caddesi"},"geometry":{"type":"Point","coordinates":[28.69572,41.230227]}},{"type":"Feature","properties":{"ad":"Meşetarla Caddesi"},"geometry":{"type":"Point","coordinates":[28.698751,41.220569]}},{"type":"Feature","properties":{"ad":"Fatih Mahallesi"},"geometry":{"type":"Point","coordinates":[28.697636,41.224674]}},{"type":"Feature","properties":{"ad":"Trabzon Mahallesi"},"geometry":{"type":"Point","coordinates":[28.690557,41.227603]}},{"type":"Feature","properties":{"ad":"Yeldeğirmeni"},"geometry":{"type":"Point","coordinates":[28.71484,41.193856]}},{"type":"Feature","properties":{"ad":"Bağlar Meydan"},"geometry":{"type":"Point","coordinates":[28.714262,41.198409]}},{"type":"Feature","properties":{"ad":"Taşoluk Yolu"},"geometry":{"type":"Point","coordinates":[28.728375,41.195926]}},{"type":"Feature","properties":{"ad":"Taşoluk Anadolu Lisesi"},"geometry":{"type":"Point","coordinates":[28.704884,41.209069]}},{"type":"Feature","properties":{"ad":"Taşoluk Yeşil Cami"},"geometry":{"type":"Point","coordinates":[28.721166,41.19186]}},{"type":"Feature","properties":{"ad":"Kuşkaya"},"geometry":{"type":"Point","coordinates":[28.708341,41.198765]}},{"type":"Feature","properties":{"ad":"Toygar Sokak"},"geometry":{"type":"Point","coordinates":[28.687822,41.226219]}},{"type":"Feature","properties":{"ad":"Leylak Sokak"},"geometry":{"type":"Point","coordinates":[28.696517,41.22854]}},{"type":"Feature","properties":{"ad":"Yahya Kemal Caddesi"},"geometry":{"type":"Point","coordinates":[28.699883,41.218234]}},{"type":"Feature","properties":{"ad":"Toki Konutları"},"geometry":{"type":"Point","coordinates":[28.704309,41.204775]}},{"type":"Feature","properties":{"ad":"Çangalçeşme"},"geometry":{"type":"Point","coordinates":[28.706629,41.217958]}},{"type":"Feature","properties":{"ad":"Taşoluk Merkez Cami"},"geometry":{"type":"Point","coordinates":[28.716202,41.196464]}},{"type":"Feature","properties":{"ad":"Çimentepe"},"geometry":{"type":"Point","coordinates":[28.704639,41.212526]}},{"type":"Feature","properties":{"ad":"Toki Konutları"},"geometry":{"type":"Point","coordinates":[28.704562,41.204793]}},{"type":"Feature","properties":{"ad":"Adnan Menderes Mahallesi"},"geometry":{"type":"Point","coordinates":[28.704165,41.218097]}},{"type":"Feature","properties":{"ad":"Taşoluk Peronlar"},"geometry":{"type":"Point","coordinates":[28.712666,41.211115]}},{"type":"Feature","properties":{"ad":"Arnavutköy Esentepe"},"geometry":{"type":"Point","coordinates":[28.736675,41.188327]}},{"type":"Feature","properties":{"ad":"Taşoluk Yolu"},"geometry":{"type":"Point","coordinates":[28.728748,41.196305]}},{"type":"Feature","properties":{"ad":"Osmanlı Konakları"},"geometry":{"type":"Point","coordinates":[28.722349,41.208913]}},{"type":"Feature","properties":{"ad":"Yavuz Selim Mahallesi"},"geometry":{"type":"Point","coordinates":[28.727491,41.201972]}},{"type":"Feature","properties":{"ad":"Çardaktepe"},"geometry":{"type":"Point","coordinates":[28.728052,41.204003]}},{"type":"Feature","properties":{"ad":"Sancaktepe"},"geometry":{"type":"Point","coordinates":[28.72011,41.209945]}},{"type":"Feature","properties":{"ad":"Taşoluk Belediyesi"},"geometry":{"type":"Point","coordinates":[28.716028,41.210364]}},{"type":"Feature","properties":{"ad":"Nargül Sokak"},"geometry":{"type":"Point","coordinates":[28.724973,41.207193]}},{"type":"Feature","properties":{"ad":"Hasan Tahsin Caddesi"},"geometry":{"type":"Point","coordinates":[28.726189,41.199059]}},{"type":"Feature","properties":{"ad":"İmrahor Yolu"},"geometry":{"type":"Point","coordinates":[28.734348,41.191325]}},{"type":"Feature","properties":{"ad":"İmrahor Yolu"},"geometry":{"type":"Point","coordinates":[28.733271,41.192289]}},{"type":"Feature","properties":{"ad":"Hasan Tahsin Caddesi"},"geometry":{"type":"Point","coordinates":[28.726458,41.199133]}},{"type":"Feature","properties":{"ad":"Nargül Sokak"},"geometry":{"type":"Point","coordinates":[28.724736,41.207037]}},{"type":"Feature","properties":{"ad":"Taşoluk Belediyesi"},"geometry":{"type":"Point","coordinates":[28.716374,41.210153]}},{"type":"Feature","properties":{"ad":"Boğazköy Tesisler"},"geometry":{"type":"Point","coordinates":[28.776714,41.160996]}},{"type":"Feature","properties":{"ad":"Sancaktepe"},"geometry":{"type":"Point","coordinates":[28.720111,41.210166]}},{"type":"Feature","properties":{"ad":"Çardaktepe"},"geometry":{"type":"Point","coordinates":[28.728374,41.204039]}},{"type":"Feature","properties":{"ad":"Yavuz Selim Mahallesi"},"geometry":{"type":"Point","coordinates":[28.727198,41.202108]}},{"type":"Feature","properties":{"ad":"Osmanlı Konakları"},"geometry":{"type":"Point","coordinates":[28.722492,41.20853]}},{"type":"Feature","properties":{"ad":"Taşoluk Yolu"},"geometry":{"type":"Point","coordinates":[28.729591,41.195141]}},{"type":"Feature","properties":{"ad":"Arnavutköy Esentepe"},"geometry":{"type":"Point","coordinates":[28.736748,41.188552]}},{"type":"Feature","properties":{"ad":"Arnavutköy Belediye"},"geometry":{"type":"Point","coordinates":[28.720858,41.185158]}},{"type":"Feature","properties":{"ad":"Arnavutköy Metro"},"geometry":{"type":"Point","coordinates":[28.748499,41.178451]}},{"type":"Feature","properties":{"ad":"A-15 İmrahor-Forum İstanbul Minibüs Başdurağı"},"geometry":{"type":"Point","coordinates":[28.747914,41.218962]}},{"type":"Feature","properties":{"ad":"Arnavutköy Metro"},"geometry":{"type":"Point","coordinates":[28.74832,41.178406]}},{"type":"Feature","properties":{"ad":"Hadımköy - Sazlıbosna Yolu"},"geometry":{"type":"Point","coordinates":[28.626865,41.157617]}},{"type":"Feature","properties":{"ad":"Hadımköy - Sazlıbosna Yolu"},"geometry":{"type":"Point","coordinates":[28.627044,41.157706]}},{"type":"Feature","properties":{"ad":"Bakırcılar"},"geometry":{"type":"Point","coordinates":[28.626427,41.148155]}},{"type":"Feature","properties":{"ad":"Bakırcılar"},"geometry":{"type":"Point","coordinates":[28.626178,41.148161]}},{"type":"Feature","properties":{"ad":"Yamaç Sokak"},"geometry":{"type":"Point","coordinates":[28.635152,41.107214]}},{"type":"Feature","properties":{"ad":"Ömerli KİPTAŞ Konutları"},"geometry":{"type":"Point","coordinates":[28.63848,41.11117]}},{"type":"Feature","properties":{"ad":"Ömerli Köy İçi"},"geometry":{"type":"Point","coordinates":[28.638855,41.115067]}},{"type":"Feature","properties":{"ad":"Ömerli Mahallesi Muhtarlığı"},"geometry":{"type":"Point","coordinates":[28.637771,41.116265]}},{"type":"Feature","properties":{"ad":"Ömerli Caddesi"},"geometry":{"type":"Point","coordinates":[28.629916,41.117733]}},{"type":"Feature","properties":{"ad":"Ömerli Köyü"},"geometry":{"type":"Point","coordinates":[28.627718,41.119062]}},{"type":"Feature","properties":{"ad":"Yeşilbayır Köyü"},"geometry":{"type":"Point","coordinates":[28.625768,41.122301]}},{"type":"Feature","properties":{"ad":"Pelteks"},"geometry":{"type":"Point","coordinates":[28.624422,41.129448]}},{"type":"Feature","properties":{"ad":"Soyak"},"geometry":{"type":"Point","coordinates":[28.623945,41.133294]}},{"type":"Feature","properties":{"ad":"Ekinova"},"geometry":{"type":"Point","coordinates":[28.625842,41.137459]}},{"type":"Feature","properties":{"ad":"Lojmanlar"},"geometry":{"type":"Point","coordinates":[28.624491,41.153373]}},{"type":"Feature","properties":{"ad":"Lojmanlar"},"geometry":{"type":"Point","coordinates":[28.624412,41.153216]}},{"type":"Feature","properties":{"ad":"Hadımköy PTT"},"geometry":{"type":"Point","coordinates":[28.621844,41.156055]}},{"type":"Feature","properties":{"ad":"Hadımbaba Camii"},"geometry":{"type":"Point","coordinates":[28.61706,41.157574]}},{"type":"Feature","properties":{"ad":"Abdül Ezel Paşa Caddesi"},"geometry":{"type":"Point","coordinates":[28.619093,41.160572]}},{"type":"Feature","properties":{"ad":"Abdül Ezel Paşa Caddesi"},"geometry":{"type":"Point","coordinates":[28.618843,41.16067]}},{"type":"Feature","properties":{"ad":"Hadımköy Üçyol"},"geometry":{"type":"Point","coordinates":[28.617959,41.165141]}},{"type":"Feature","properties":{"ad":"Hadımköy Üçyol"},"geometry":{"type":"Point","coordinates":[28.618122,41.164804]}},{"type":"Feature","properties":{"ad":"Adalet Sokak"},"geometry":{"type":"Point","coordinates":[28.615784,41.166345]}},{"type":"Feature","properties":{"ad":"Adalet Sokak"},"geometry":{"type":"Point","coordinates":[28.615304,41.166542]}},{"type":"Feature","properties":{"ad":"Yamaç Evleri"},"geometry":{"type":"Point","coordinates":[28.613165,41.169786]}},{"type":"Feature","properties":{"ad":"Yamaç Evleri"},"geometry":{"type":"Point","coordinates":[28.613196,41.169367]}},{"type":"Feature","properties":{"ad":"Mevlana Caddesi"},"geometry":{"type":"Point","coordinates":[28.611976,41.171479]}},{"type":"Feature","properties":{"ad":"Mevlana Caddesi"},"geometry":{"type":"Point","coordinates":[28.61211,41.171663]}},{"type":"Feature","properties":{"ad":"Vadi"},"geometry":{"type":"Point","coordinates":[28.611635,41.17701]}},{"type":"Feature","properties":{"ad":"Vadi"},"geometry":{"type":"Point","coordinates":[28.611662,41.177178]}},{"type":"Feature","properties":{"ad":"Cahit Sıtkı Tarancı Caddesi"},"geometry":{"type":"Point","coordinates":[28.614562,41.177842]}},{"type":"Feature","properties":{"ad":"Cahit Sıtkı Tarancı Caddesi"},"geometry":{"type":"Point","coordinates":[28.614775,41.177858]}},{"type":"Feature","properties":{"ad":"Osmangazi Ortaokulu"},"geometry":{"type":"Point","coordinates":[28.613075,41.18194]}},{"type":"Feature","properties":{"ad":"Nazmi Akpınar Cami"},"geometry":{"type":"Point","coordinates":[28.610949,41.184513]}},{"type":"Feature","properties":{"ad":"Bayındır Caddesi"},"geometry":{"type":"Point","coordinates":[28.609471,41.185693]}},{"type":"Feature","properties":{"ad":"Teknoloji Lisesi"},"geometry":{"type":"Point","coordinates":[28.60782,41.189904]}},{"type":"Feature","properties":{"ad":"Teknoloji Lisesi"},"geometry":{"type":"Point","coordinates":[28.607815,41.189837]}},{"type":"Feature","properties":{"ad":"TOKİ PTT"},"geometry":{"type":"Point","coordinates":[28.606463,41.193699]}},{"type":"Feature","properties":{"ad":"TOKİ PTT"},"geometry":{"type":"Point","coordinates":[28.606546,41.193586]}},{"type":"Feature","properties":{"ad":"Dolunay Sokak"},"geometry":{"type":"Point","coordinates":[28.611438,41.195636]}},{"type":"Feature","properties":{"ad":"Dolunay Sokak"},"geometry":{"type":"Point","coordinates":[28.611779,41.19558]}},{"type":"Feature","properties":{"ad":"Hadımköy Akpınar Peronlar"},"geometry":{"type":"Point","coordinates":[28.612833,41.197319]}},{"type":"Feature","properties":{"ad":"Bayındır Caddesi"},"geometry":{"type":"Point","coordinates":[28.608052,41.185477]}},{"type":"Feature","properties":{"ad":"Hadımköy TOKİ"},"geometry":{"type":"Point","coordinates":[28.606777,41.182541]}},{"type":"Feature","properties":{"ad":"İstasyon Mahallesi"},"geometry":{"type":"Point","coordinates":[28.608495,41.180494]}},{"type":"Feature","properties":{"ad":"Osmangazi Ortaokulu"},"geometry":{"type":"Point","coordinates":[28.612088,41.18117]}},{"type":"Feature","properties":{"ad":"Hadımköy Tepe"},"geometry":{"type":"Point","coordinates":[28.622341,41.163468]}},{"type":"Feature","properties":{"ad":"Yaşar Doğu Caddesi"},"geometry":{"type":"Point","coordinates":[28.624316,41.160386]}},{"type":"Feature","properties":{"ad":"Yaşar Doğu Caddesi"},"geometry":{"type":"Point","coordinates":[28.624514,41.160457]}},{"type":"Feature","properties":{"ad":"Hadımköy PTT"},"geometry":{"type":"Point","coordinates":[28.623005,41.156008]}},{"type":"Feature","properties":{"ad":"Ayasofya Caddesi"},"geometry":{"type":"Point","coordinates":[28.619781,41.156464]}},{"type":"Feature","properties":{"ad":"Hadımbaba Camii"},"geometry":{"type":"Point","coordinates":[28.616732,41.157614]}},{"type":"Feature","properties":{"ad":"Hadımköy"},"geometry":{"type":"Point","coordinates":[28.614015,41.157509]}},{"type":"Feature","properties":{"ad":"Hadımköy"},"geometry":{"type":"Point","coordinates":[28.614181,41.15748]}},{"type":"Feature","properties":{"ad":"Turgut Özal Caddesi"},"geometry":{"type":"Point","coordinates":[28.613604,41.155143]}},{"type":"Feature","properties":{"ad":"Turgut Özal Caddesi"},"geometry":{"type":"Point","coordinates":[28.613615,41.15531]}},{"type":"Feature","properties":{"ad":"Hadımköy Benzinci"},"geometry":{"type":"Point","coordinates":[28.616867,41.152179]}},{"type":"Feature","properties":{"ad":"Hadımköy Benzinci"},"geometry":{"type":"Point","coordinates":[28.616923,41.152381]}},{"type":"Feature","properties":{"ad":"Bakırcılar"},"geometry":{"type":"Point","coordinates":[28.621259,41.146222]}},{"type":"Feature","properties":{"ad":"Hadımköy - İstanbul Caddesi"},"geometry":{"type":"Point","coordinates":[28.623468,41.135781]}},{"type":"Feature","properties":{"ad":"Soyak"},"geometry":{"type":"Point","coordinates":[28.623604,41.133009]}},{"type":"Feature","properties":{"ad":"Pelteks"},"geometry":{"type":"Point","coordinates":[28.624076,41.129698]}},{"type":"Feature","properties":{"ad":"Yeşilbayır Köyü"},"geometry":{"type":"Point","coordinates":[28.625189,41.122112]}},{"type":"Feature","properties":{"ad":"Ömerli Köyü"},"geometry":{"type":"Point","coordinates":[28.6275,41.118894]}},{"type":"Feature","properties":{"ad":"Ömerli Caddesi"},"geometry":{"type":"Point","coordinates":[28.629496,41.117719]}},{"type":"Feature","properties":{"ad":"Ömerli Mahallesi Muhtarlığı"},"geometry":{"type":"Point","coordinates":[28.637871,41.115942]}},{"type":"Feature","properties":{"ad":"Ömerli Köy İçi"},"geometry":{"type":"Point","coordinates":[28.638713,41.115054]}},{"type":"Feature","properties":{"ad":"Ömerli KİPTAŞ Konutları"},"geometry":{"type":"Point","coordinates":[28.637668,41.111543]}},{"type":"Feature","properties":{"ad":"Yamaç Sokak"},"geometry":{"type":"Point","coordinates":[28.634931,41.107211]}},{"type":"Feature","properties":{"ad":"Arnavutköy Anadolu Lisesi"},"geometry":{"type":"Point","coordinates":[28.725439,41.203321]}},{"type":"Feature","properties":{"ad":"Doğaner Sokak"},"geometry":{"type":"Point","coordinates":[28.742701,41.194362]}},{"type":"Feature","properties":{"ad":"Melek Sokak"},"geometry":{"type":"Point","coordinates":[28.768087,41.187484]}},{"type":"Feature","properties":{"ad":"Çilingir Muhtarliği"},"geometry":{"type":"Point","coordinates":[28.677354,41.18661]}},{"type":"Feature","properties":{"ad":"Taşoluk Metro"},"geometry":{"type":"Point","coordinates":[28.715856,41.207228]}},{"type":"Feature","properties":{"ad":"Şehit Er Tuncay Türken Ortaokulu"},"geometry":{"type":"Point","coordinates":[28.760156,41.184945]}},{"type":"Feature","properties":{"ad":"İstiklal Mahallesi"},"geometry":{"type":"Point","coordinates":[28.761069,41.179607]}},{"type":"Feature","properties":{"ad":"Sarikaya Sokak"},"geometry":{"type":"Point","coordinates":[28.693241,41.229141]}},{"type":"Feature","properties":{"ad":"Göktürk Caddesi"},"geometry":{"type":"Point","coordinates":[28.767623,41.20511]}},{"type":"Feature","properties":{"ad":"Pegasus Evleri"},"geometry":{"type":"Point","coordinates":[28.695027,41.169227]}},{"type":"Feature","properties":{"ad":"Sazlıbosna Girişi"},"geometry":{"type":"Point","coordinates":[28.671914,41.156773]}},{"type":"Feature","properties":{"ad":"Arnavutköy Polis Okulu"},"geometry":{"type":"Point","coordinates":[28.7364,41.21076]}},{"type":"Feature","properties":{"ad":"Dr. Hilmi Demirci Caddesi"},"geometry":{"type":"Point","coordinates":[28.681334,41.230152]}},{"type":"Feature","properties":{"ad":"Dr. Hilmi Demirci Caddesi"},"geometry":{"type":"Point","coordinates":[28.681208,41.23024]}},{"type":"Feature","properties":{"ad":"Gaz Fabrikası"},"geometry":{"type":"Point","coordinates":[28.766251,41.180638]}},{"type":"Feature","properties":{"ad":"Hicret Parkı"},"geometry":{"type":"Point","coordinates":[28.757525,41.197555]}},{"type":"Feature","properties":{"ad":"Rauf Sokak"},"geometry":{"type":"Point","coordinates":[28.768032,41.18446]}},{"type":"Feature","properties":{"ad":"Tepe Evler"},"geometry":{"type":"Point","coordinates":[28.669483,41.193047]}},{"type":"Feature","properties":{"ad":"Topincirler"},"geometry":{"type":"Point","coordinates":[28.745214,41.188815]}},{"type":"Feature","properties":{"ad":"Sazlibosna Caddesi"},"geometry":{"type":"Point","coordinates":[28.702749,41.173311]}},{"type":"Feature","properties":{"ad":"Boğazköy Atatürk Caddesi"},"geometry":{"type":"Point","coordinates":[28.763572,41.179984]}},{"type":"Feature","properties":{"ad":"Selahattin Eyyubi Caddesi"},"geometry":{"type":"Point","coordinates":[28.763348,41.194736]}},{"type":"Feature","properties":{"ad":"Hicret Mahallesi"},"geometry":{"type":"Point","coordinates":[28.753046,41.197907]}},{"type":"Feature","properties":{"ad":"Hacımaşlı"},"geometry":{"type":"Point","coordinates":[28.712252,41.15516]}},{"type":"Feature","properties":{"ad":"Bağlar Meydan"},"geometry":{"type":"Point","coordinates":[28.712354,41.198484]}},{"type":"Feature","properties":{"ad":"İslambey Mahallesi"},"geometry":{"type":"Point","coordinates":[28.750591,41.188362]}},{"type":"Feature","properties":{"ad":"Hobi Bahçesi"},"geometry":{"type":"Point","coordinates":[28.681593,41.164546]}},{"type":"Feature","properties":{"ad":"Atatürk Mahallesi"},"geometry":{"type":"Point","coordinates":[28.764117,41.191079]}},{"type":"Feature","properties":{"ad":"Taşoluk Belediyesi"},"geometry":{"type":"Point","coordinates":[28.715045,41.209744]}},{"type":"Feature","properties":{"ad":"Malazgirt Ortaokulu"},"geometry":{"type":"Point","coordinates":[28.725593,41.21291]}},{"type":"Feature","properties":{"ad":"Hacımaşlı Caddesi"},"geometry":{"type":"Point","coordinates":[28.697442,41.159933]}},{"type":"Feature","properties":{"ad":"Sanem Sokak"},"geometry":{"type":"Point","coordinates":[28.702706,41.17586]}},{"type":"Feature","properties":{"ad":"Nasrettin Hoca Caddesi"},"geometry":{"type":"Point","coordinates":[28.723298,41.199886]}},{"type":"Feature","properties":{"ad":"Feda Sokak"},"geometry":{"type":"Point","coordinates":[28.745296,41.192635]}},{"type":"Feature","properties":{"ad":"Haraççi Mahalle Muhtarliği"},"geometry":{"type":"Point","coordinates":[28.701988,41.179466]}},{"type":"Feature","properties":{"ad":"Tepe Evler"},"geometry":{"type":"Point","coordinates":[28.669102,41.193128]}},{"type":"Feature","properties":{"ad":"Hicret Mahallesi"},"geometry":{"type":"Point","coordinates":[28.753304,41.197972]}},{"type":"Feature","properties":{"ad":"Sağlık Ocaği"},"geometry":{"type":"Point","coordinates":[28.716301,41.203923]}},{"type":"Feature","properties":{"ad":"İslambey Mahallesi"},"geometry":{"type":"Point","coordinates":[28.749981,41.188512]}},{"type":"Feature","properties":{"ad":"Feda Sokak"},"geometry":{"type":"Point","coordinates":[28.745508,41.192844]}},{"type":"Feature","properties":{"ad":"Yunus Emre Parkı"},"geometry":{"type":"Point","coordinates":[28.758358,41.18152]}},{"type":"Feature","properties":{"ad":"Ahmet Yesevi Caddesi"},"geometry":{"type":"Point","coordinates":[28.754391,41.187567]}},{"type":"Feature","properties":{"ad":"Sazlıbosna Köyü"},"geometry":{"type":"Point","coordinates":[28.673768,41.155359]}},{"type":"Feature","properties":{"ad":"Bilal Habeşi Camii"},"geometry":{"type":"Point","coordinates":[28.730176,41.214146]}},{"type":"Feature","properties":{"ad":"Ulubatli Hasan Caddesi"},"geometry":{"type":"Point","coordinates":[28.737104,41.214408]}},{"type":"Feature","properties":{"ad":"Sazlıbosna Tepe"},"geometry":{"type":"Point","coordinates":[28.678323,41.159979]}},{"type":"Feature","properties":{"ad":"Sazlıbosna Köyü"},"geometry":{"type":"Point","coordinates":[28.673357,41.15534]}},{"type":"Feature","properties":{"ad":"Ahmet Yesevi Caddesi"},"geometry":{"type":"Point","coordinates":[28.75424,41.18751]}},{"type":"Feature","properties":{"ad":"Melek Sokak"},"geometry":{"type":"Point","coordinates":[28.768645,41.18714]}},{"type":"Feature","properties":{"ad":"Sazlıbosna Girişi"},"geometry":{"type":"Point","coordinates":[28.672083,41.156829]}},{"type":"Feature","properties":{"ad":"Battalgazi Caddesi"},"geometry":{"type":"Point","coordinates":[28.76558,41.201144]}},{"type":"Feature","properties":{"ad":"Karadeniz Mahallesi"},"geometry":{"type":"Point","coordinates":[28.690393,41.184221]}},{"type":"Feature","properties":{"ad":"Karadeniz Mahallesi"},"geometry":{"type":"Point","coordinates":[28.690733,41.184418]}},{"type":"Feature","properties":{"ad":"Boğazköy Atatürk Caddesi"},"geometry":{"type":"Point","coordinates":[28.763479,41.180139]}},{"type":"Feature","properties":{"ad":"Şehit Er Tuncay Türken Ortaokulu"},"geometry":{"type":"Point","coordinates":[28.760925,41.18514]}},{"type":"Feature","properties":{"ad":"Nasrettin Hoca Caddesi"},"geometry":{"type":"Point","coordinates":[28.723452,41.200166]}},{"type":"Feature","properties":{"ad":"Hicret Parkı"},"geometry":{"type":"Point","coordinates":[28.757499,41.197609]}},{"type":"Feature","properties":{"ad":"Yayla Caddesi"},"geometry":{"type":"Point","coordinates":[28.734534,41.216256]}},{"type":"Feature","properties":{"ad":"Şirindere Caddesi"},"geometry":{"type":"Point","coordinates":[28.761005,41.188594]}},{"type":"Feature","properties":{"ad":"Sağlık Ocaği"},"geometry":{"type":"Point","coordinates":[28.716062,41.204073]}},{"type":"Feature","properties":{"ad":"Selahattin Eyyubi Caddesi"},"geometry":{"type":"Point","coordinates":[28.763504,41.19433]}},{"type":"Feature","properties":{"ad":"Çilingir Köyü Mezarliği"},"geometry":{"type":"Point","coordinates":[28.67543,41.189941]}},{"type":"Feature","properties":{"ad":"Sefa Cami"},"geometry":{"type":"Point","coordinates":[28.675907,41.232835]}},{"type":"Feature","properties":{"ad":"Atatürk Mahallesi"},"geometry":{"type":"Point","coordinates":[28.764175,41.190764]}},{"type":"Feature","properties":{"ad":"Çamlıtepe"},"geometry":{"type":"Point","coordinates":[28.779067,41.14768]}},{"type":"Feature","properties":{"ad":"Fenertepe Yolu"},"geometry":{"type":"Point","coordinates":[28.795489,41.145212]}},{"type":"Feature","properties":{"ad":"Göktürk Caddesi"},"geometry":{"type":"Point","coordinates":[28.767215,41.204681]}},{"type":"Feature","properties":{"ad":"Haraççi Yolağzi"},"geometry":{"type":"Point","coordinates":[28.698778,41.183152]}},{"type":"Feature","properties":{"ad":"Gülistan Sokak"},"geometry":{"type":"Point","coordinates":[28.705252,41.164739]}},{"type":"Feature","properties":{"ad":"Çilingir Köyü Mezarliği"},"geometry":{"type":"Point","coordinates":[28.675476,41.189946]}},{"type":"Feature","properties":{"ad":"Haraççi Mahalle Muhtarliği"},"geometry":{"type":"Point","coordinates":[28.702179,41.179541]}},{"type":"Feature","properties":{"ad":"Malazgirt Ortaokulu"},"geometry":{"type":"Point","coordinates":[28.725635,41.21284]}},{"type":"Feature","properties":{"ad":"30 Ağustos Caddesi"},"geometry":{"type":"Point","coordinates":[28.758478,41.183202]}},{"type":"Feature","properties":{"ad":"Boğazköy Emre Sokak"},"geometry":{"type":"Point","coordinates":[28.776716,41.17885]}},{"type":"Feature","properties":{"ad":"Yunus Emre Parkı"},"geometry":{"type":"Point","coordinates":[28.758012,41.181342]}},{"type":"Feature","properties":{"ad":"Yayla Caddesi"},"geometry":{"type":"Point","coordinates":[28.734382,41.216338]}},{"type":"Feature","properties":{"ad":"Mehmet Akif Ersoy Camii"},"geometry":{"type":"Point","coordinates":[28.773809,41.209492]}},{"type":"Feature","properties":{"ad":"Gölpark"},"geometry":{"type":"Point","coordinates":[28.775447,41.211647]}},{"type":"Feature","properties":{"ad":"Sefa Cami"},"geometry":{"type":"Point","coordinates":[28.675905,41.232638]}},{"type":"Feature","properties":{"ad":"Bilal Habeşi Camii"},"geometry":{"type":"Point","coordinates":[28.730349,41.214064]}},{"type":"Feature","properties":{"ad":"Taşoluk Metro"},"geometry":{"type":"Point","coordinates":[28.71602,41.207697]}},{"type":"Feature","properties":{"ad":"Hacımaşlı Fabrikalar"},"geometry":{"type":"Point","coordinates":[28.695723,41.162252]}},{"type":"Feature","properties":{"ad":"Hacımaşlı Yol Ağzı"},"geometry":{"type":"Point","coordinates":[28.69156,41.167118]}},{"type":"Feature","properties":{"ad":"Mehmet Akif Ersoy Camii"},"geometry":{"type":"Point","coordinates":[28.774106,41.209543]}},{"type":"Feature","properties":{"ad":"Battalgazi Caddesi"},"geometry":{"type":"Point","coordinates":[28.766591,41.201647]}},{"type":"Feature","properties":{"ad":"Rauf Sokak"},"geometry":{"type":"Point","coordinates":[28.767775,41.18458]}},{"type":"Feature","properties":{"ad":"Sarikaya Sokak"},"geometry":{"type":"Point","coordinates":[28.693386,41.229367]}},{"type":"Feature","properties":{"ad":"Haraççi Yolağzi"},"geometry":{"type":"Point","coordinates":[28.698542,41.183171]}},{"type":"Feature","properties":{"ad":"Ulubatli Hasan Caddesi"},"geometry":{"type":"Point","coordinates":[28.737865,41.214377]}},{"type":"Feature","properties":{"ad":"Hobi Bahçesi"},"geometry":{"type":"Point","coordinates":[28.681785,41.164414]}},{"type":"Feature","properties":{"ad":"Gölpark"},"geometry":{"type":"Point","coordinates":[28.775915,41.211846]}},{"type":"Feature","properties":{"ad":"Hesap Sokak"},"geometry":{"type":"Point","coordinates":[28.766662,41.207506]}},{"type":"Feature","properties":{"ad":"Sazlıbosna"},"geometry":{"type":"Point","coordinates":[28.675863,41.156386]}},{"type":"Feature","properties":{"ad":"30 Ağustos Caddesi"},"geometry":{"type":"Point","coordinates":[28.757778,41.183028]}},{"type":"Feature","properties":{"ad":"Çilingir Muhtarliği"},"geometry":{"type":"Point","coordinates":[28.677162,41.187184]}},{"type":"Feature","properties":{"ad":"Sazlibosna Caddesi"},"geometry":{"type":"Point","coordinates":[28.70296,41.173382]}},{"type":"Feature","properties":{"ad":"Hacımaşlı Caddesi"},"geometry":{"type":"Point","coordinates":[28.69732,41.159665]}},{"type":"Feature","properties":{"ad":"Şirindere Caddesi"},"geometry":{"type":"Point","coordinates":[28.761199,41.1888]}},{"type":"Feature","properties":{"ad":"Gaz Fabrikası"},"geometry":{"type":"Point","coordinates":[28.766152,41.180766]}},{"type":"Feature","properties":{"ad":"Topincirler"},"geometry":{"type":"Point","coordinates":[28.745383,41.188741]}},{"type":"Feature","properties":{"ad":"Hacımaşlı Yol Ağzı"},"geometry":{"type":"Point","coordinates":[28.691441,41.167218]}},{"type":"Feature","properties":{"ad":"Arnavutköy Anadolu Lisesi"},"geometry":{"type":"Point","coordinates":[28.725639,41.203395]}},{"type":"Feature","properties":{"ad":"Taşoluk Belediyesi"},"geometry":{"type":"Point","coordinates":[28.715258,41.209818]}},{"type":"Feature","properties":{"ad":"Sazlıbosna"},"geometry":{"type":"Point","coordinates":[28.676377,41.157087]}},{"type":"Feature","properties":{"ad":"Mecit Sokak"},"geometry":{"type":"Point","coordinates":[28.703941,41.186655]}},{"type":"Feature","properties":{"ad":"Pegasus Evleri"},"geometry":{"type":"Point","coordinates":[28.695114,41.169065]}},{"type":"Feature","properties":{"ad":"Sanem Sokak"},"geometry":{"type":"Point","coordinates":[28.702577,41.175795]}},{"type":"Feature","properties":{"ad":"Gülistan Sokak"},"geometry":{"type":"Point","coordinates":[28.70539,41.164871]}},{"type":"Feature","properties":{"ad":"Araç Muayene İstasyonu"},"geometry":{"type":"Point","coordinates":[28.695693,41.183878]}},{"type":"Feature","properties":{"ad":"Doğaner Sokak"},"geometry":{"type":"Point","coordinates":[28.742216,41.194797]}},{"type":"Feature","properties":{"ad":"Sazlıbosna Tepe"},"geometry":{"type":"Point","coordinates":[28.678443,41.159965]}},{"type":"Feature","properties":{"ad":"Hacımaşlı Fabrikalar"},"geometry":{"type":"Point","coordinates":[28.695207,41.162644]}},{"type":"Feature","properties":{"ad":"Araç Muayene İstasyonu"},"geometry":{"type":"Point","coordinates":[28.695714,41.184018]}},{"type":"Feature","properties":{"ad":"Birlik Sokak"},"geometry":{"type":"Point","coordinates":[28.629917,41.157583]}},{"type":"Feature","properties":{"ad":"Rukiye Sokak"},"geometry":{"type":"Point","coordinates":[28.617084,41.180671]}},{"type":"Feature","properties":{"ad":"İstasyon Mahallesi"},"geometry":{"type":"Point","coordinates":[28.608489,41.180656]}},{"type":"Feature","properties":{"ad":"Adnan Menderes Caddesi"},"geometry":{"type":"Point","coordinates":[28.62776,41.163765]}},{"type":"Feature","properties":{"ad":"Et Kombinası"},"geometry":{"type":"Point","coordinates":[28.633391,41.156373]}},{"type":"Feature","properties":{"ad":"Yar Sokak"},"geometry":{"type":"Point","coordinates":[28.621921,41.172437]}},{"type":"Feature","properties":{"ad":"Hadımköy PTT"},"geometry":{"type":"Point","coordinates":[28.623377,41.155982]}},{"type":"Feature","properties":{"ad":"Adnan Kahveci Parkı"},"geometry":{"type":"Point","coordinates":[28.633713,41.163945]}},{"type":"Feature","properties":{"ad":"Hanedan Sokak"},"geometry":{"type":"Point","coordinates":[28.609736,41.176511]}},{"type":"Feature","properties":{"ad":"Deliklikaya İstoeb"},"geometry":{"type":"Point","coordinates":[28.653968,41.128265]}},{"type":"Feature","properties":{"ad":"Yeşilbayır Camii"},"geometry":{"type":"Point","coordinates":[28.608326,41.130261]}},{"type":"Feature","properties":{"ad":"Ömerli Köyü"},"geometry":{"type":"Point","coordinates":[28.628133,41.118082]}},{"type":"Feature","properties":{"ad":"Altinşehir Yolu"},"geometry":{"type":"Point","coordinates":[28.65785,41.116959]}},{"type":"Feature","properties":{"ad":"Yeşilbayir Köy İçi"},"geometry":{"type":"Point","coordinates":[28.60725,41.129421]}},{"type":"Feature","properties":{"ad":"Yüzbaşi Mehmet Hilmi Caddesi"},"geometry":{"type":"Point","coordinates":[28.653968,41.125013]}},{"type":"Feature","properties":{"ad":"Karma Caddesi"},"geometry":{"type":"Point","coordinates":[28.653133,41.120162]}},{"type":"Feature","properties":{"ad":"Ömerli Köyü"},"geometry":{"type":"Point","coordinates":[28.627717,41.119064]}},{"type":"Feature","properties":{"ad":"Deliklikaya Yolu"},"geometry":{"type":"Point","coordinates":[28.660195,41.113909]}},{"type":"Feature","properties":{"ad":"Deliklikaya Altinşehir Yolu"},"geometry":{"type":"Point","coordinates":[28.672727,41.112014]}},{"type":"Feature","properties":{"ad":"Hadımköy Ömerli Caddesi"},"geometry":{"type":"Point","coordinates":[28.643815,41.11244]}},{"type":"Feature","properties":{"ad":"Dikmen Sokak"},"geometry":{"type":"Point","coordinates":[28.66987,41.112386]}},{"type":"Feature","properties":{"ad":"İstanbul Yolu"},"geometry":{"type":"Point","coordinates":[28.634047,41.105329]}},{"type":"Feature","properties":{"ad":"Heybetli Sokak"},"geometry":{"type":"Point","coordinates":[28.663634,41.112059]}},{"type":"Feature","properties":{"ad":"Deliklikaya"},"geometry":{"type":"Point","coordinates":[28.654392,41.111347]}},{"type":"Feature","properties":{"ad":"Altinşehir Yolu"},"geometry":{"type":"Point","coordinates":[28.658189,41.117254]}},{"type":"Feature","properties":{"ad":"Deliklikaya Yolu"},"geometry":{"type":"Point","coordinates":[28.677006,41.110634]}},{"type":"Feature","properties":{"ad":"Kayabaşı Caddesi"},"geometry":{"type":"Point","coordinates":[28.65538,41.114082]}},{"type":"Feature","properties":{"ad":"Deliklikaya Yolu"},"geometry":{"type":"Point","coordinates":[28.660718,41.114069]}},{"type":"Feature","properties":{"ad":"Evrim Sokak"},"geometry":{"type":"Point","coordinates":[28.674633,41.111743]}},{"type":"Feature","properties":{"ad":"Hadımköy Ömerli Caddesi"},"geometry":{"type":"Point","coordinates":[28.644363,41.112591]}},{"type":"Feature","properties":{"ad":"Yeşilbayir Yolu"},"geometry":{"type":"Point","coordinates":[28.604645,41.129947]}},{"type":"Feature","properties":{"ad":"Yüzbaşi Mehmet Hilmi Caddesi"},"geometry":{"type":"Point","coordinates":[28.653756,41.125294]}},{"type":"Feature","properties":{"ad":"Deliklikaya"},"geometry":{"type":"Point","coordinates":[28.654196,41.111436]}},{"type":"Feature","properties":{"ad":"Dikmen Sokak"},"geometry":{"type":"Point","coordinates":[28.670333,41.112426]}},{"type":"Feature","properties":{"ad":"Yeşilbayir Camii"},"geometry":{"type":"Point","coordinates":[28.608211,41.130321]}},{"type":"Feature","properties":{"ad":"Karma Caddesi"},"geometry":{"type":"Point","coordinates":[28.652921,41.12047]}},{"type":"Feature","properties":{"ad":"Ömerli KİPTAŞ Konutları"},"geometry":{"type":"Point","coordinates":[28.638772,41.111777]}},{"type":"Feature","properties":{"ad":"Yeşilbayir Yolu"},"geometry":{"type":"Point","coordinates":[28.604574,41.130017]}},{"type":"Feature","properties":{"ad":"Deliklikaya İstoeb"},"geometry":{"type":"Point","coordinates":[28.654129,41.127987]}},{"type":"Feature","properties":{"ad":"Yeşilbayir Köy İçi"},"geometry":{"type":"Point","coordinates":[28.607103,41.129341]}},{"type":"Feature","properties":{"ad":"Deliklikaya Altinşehir Yolu"},"geometry":{"type":"Point","coordinates":[28.673106,41.111859]}},{"type":"Feature","properties":{"ad":"Fevzi Çakmak Caddesi"},"geometry":{"type":"Point","coordinates":[28.621655,41.169893]}},{"type":"Feature","properties":{"ad":"Fahri Korutürk Caddesi"},"geometry":{"type":"Point","coordinates":[28.637161,41.156537]}},{"type":"Feature","properties":{"ad":"Adnan Kahveci Parkı"},"geometry":{"type":"Point","coordinates":[28.633805,41.163977]}},{"type":"Feature","properties":{"ad":"Dursunköy Sapağı"},"geometry":{"type":"Point","coordinates":[28.638137,41.190435]}},{"type":"Feature","properties":{"ad":"Hanedan Sokak"},"geometry":{"type":"Point","coordinates":[28.60988,41.176621]}},{"type":"Feature","properties":{"ad":"Fevzi Çakmak Caddesi"},"geometry":{"type":"Point","coordinates":[28.62176,41.169865]}},{"type":"Feature","properties":{"ad":"Hadimköy Mesleki Ve Teknik Anadolu Lisesi"},"geometry":{"type":"Point","coordinates":[28.641296,41.150357]}},{"type":"Feature","properties":{"ad":"Kadirtepe"},"geometry":{"type":"Point","coordinates":[28.628521,41.169164]}},{"type":"Feature","properties":{"ad":"Hadımköy Caddesi"},"geometry":{"type":"Point","coordinates":[28.635386,41.157049]}},{"type":"Feature","properties":{"ad":"Meşelik"},"geometry":{"type":"Point","coordinates":[28.600667,41.170489]}},{"type":"Feature","properties":{"ad":"Dursunköy Sapağı"},"geometry":{"type":"Point","coordinates":[28.639148,41.191063]}},{"type":"Feature","properties":{"ad":"Hadımköy Anadolu Lisesi"},"geometry":{"type":"Point","coordinates":[28.619037,41.152836]}},{"type":"Feature","properties":{"ad":"Dursunköy Sapağı"},"geometry":{"type":"Point","coordinates":[28.639032,41.191082]}},{"type":"Feature","properties":{"ad":"Adnan Menderes Caddesi"},"geometry":{"type":"Point","coordinates":[28.627987,41.163698]}},{"type":"Feature","properties":{"ad":"Hadımköy Caddesi"},"geometry":{"type":"Point","coordinates":[28.635516,41.157111]}},{"type":"Feature","properties":{"ad":"Hadımköy TOKİ"},"geometry":{"type":"Point","coordinates":[28.605651,41.185005]}},{"type":"Feature","properties":{"ad":"Hadımköy PTT"},"geometry":{"type":"Point","coordinates":[28.622522,41.155327]}},{"type":"Feature","properties":{"ad":"Rukiye Sokak"},"geometry":{"type":"Point","coordinates":[28.617072,41.180603]}},{"type":"Feature","properties":{"ad":"Fethi Paşa Caddesi"},"geometry":{"type":"Point","coordinates":[28.631974,41.166814]}},{"type":"Feature","properties":{"ad":"Yar Sokak"},"geometry":{"type":"Point","coordinates":[28.621822,41.172246]}},{"type":"Feature","properties":{"ad":"Birlik Sokak"},"geometry":{"type":"Point","coordinates":[28.629895,41.157683]}},{"type":"Feature","properties":{"ad":"Et Kombinası"},"geometry":{"type":"Point","coordinates":[28.633505,41.156072]}},{"type":"Feature","properties":{"ad":"Kadirtepe"},"geometry":{"type":"Point","coordinates":[28.628455,41.169077]}},{"type":"Feature","properties":{"ad":"Bakırcılar"},"geometry":{"type":"Point","coordinates":[28.621154,41.146851]}},{"type":"Feature","properties":{"ad":"Fethi Paşa Caddesi"},"geometry":{"type":"Point","coordinates":[28.632328,41.166683]}},{"type":"Feature","properties":{"ad":"Hadımköy Anadolu Lisesi"},"geometry":{"type":"Point","coordinates":[28.618827,41.152872]}},{"type":"Feature","properties":{"ad":"Sazlıbosna Gölü"},"geometry":{"type":"Point","coordinates":[28.654732,41.160071]}},{"type":"Feature","properties":{"ad":"Fahri Korutürk Caddesi"},"geometry":{"type":"Point","coordinates":[28.637359,41.156024]}},{"type":"Feature","properties":{"ad":"Sazlıbosna Gölü"},"geometry":{"type":"Point","coordinates":[28.654694,41.160232]}},{"type":"Feature","properties":{"ad":"Darülaceze Arnavutköy"},"geometry":{"type":"Point","coordinates":[28.592204,41.243729]}},{"type":"Feature","properties":{"ad":"Terkos Karaburun Caddesi"},"geometry":{"type":"Point","coordinates":[28.661006,41.276326]}},{"type":"Feature","properties":{"ad":"Boyalık Sapağı"},"geometry":{"type":"Point","coordinates":[28.644285,41.212843]}},{"type":"Feature","properties":{"ad":"Gülhane Sokak"},"geometry":{"type":"Point","coordinates":[28.664324,41.288503]}},{"type":"Feature","properties":{"ad":"Arnavutköy Beşyol"},"geometry":{"type":"Point","coordinates":[28.669178,41.269212]}},{"type":"Feature","properties":{"ad":"Bağlar"},"geometry":{"type":"Point","coordinates":[28.69146,41.271586]}},{"type":"Feature","properties":{"ad":"Tayakadin İlkokulu"},"geometry":{"type":"Point","coordinates":[28.689871,41.268017]}},{"type":"Feature","properties":{"ad":"Atatürk Caddesi"},"geometry":{"type":"Point","coordinates":[28.649706,41.230642]}},{"type":"Feature","properties":{"ad":"Terkos"},"geometry":{"type":"Point","coordinates":[28.674193,41.300546]}},{"type":"Feature","properties":{"ad":"Dursunbey Fabrikalar"},"geometry":{"type":"Point","coordinates":[28.64174,41.217732]}},{"type":"Feature","properties":{"ad":"Dursunbey Fabrikalar"},"geometry":{"type":"Point","coordinates":[28.64167,41.217733]}},{"type":"Feature","properties":{"ad":"Balaban Yolu"},"geometry":{"type":"Point","coordinates":[28.630017,41.307936]}},{"type":"Feature","properties":{"ad":"Bilgealp Sokak"},"geometry":{"type":"Point","coordinates":[28.635772,41.229287]}},{"type":"Feature","properties":{"ad":"Yassiören Yolu"},"geometry":{"type":"Point","coordinates":[28.61234,41.27738]}},{"type":"Feature","properties":{"ad":"Dursunköy Caddesi"},"geometry":{"type":"Point","coordinates":[28.638111,41.202175]}},{"type":"Feature","properties":{"ad":"Balaban Yolu"},"geometry":{"type":"Point","coordinates":[28.615037,41.310631]}},{"type":"Feature","properties":{"ad":"Boyalık Sapağı"},"geometry":{"type":"Point","coordinates":[28.644181,41.212807]}},{"type":"Feature","properties":{"ad":"Sonay Sokak"},"geometry":{"type":"Point","coordinates":[28.659767,41.2701]}},{"type":"Feature","properties":{"ad":"Yassiören"},"geometry":{"type":"Point","coordinates":[28.5977,41.235514]}},{"type":"Feature","properties":{"ad":"Sahil Yolu-2"},"geometry":{"type":"Point","coordinates":[28.704324,41.333435]}},{"type":"Feature","properties":{"ad":"Sahil Caddesi"},"geometry":{"type":"Point","coordinates":[28.718129,41.328176]}},{"type":"Feature","properties":{"ad":"Balaban Köyü"},"geometry":{"type":"Point","coordinates":[28.613801,41.312302]}},{"type":"Feature","properties":{"ad":"11 Evler Mahallesi"},"geometry":{"type":"Point","coordinates":[28.668368,41.308957]}},{"type":"Feature","properties":{"ad":"Eski Edirne Asfaltı Caddesi"},"geometry":{"type":"Point","coordinates":[28.59101,41.245562]}},{"type":"Feature","properties":{"ad":"Sahil Yolu-1"},"geometry":{"type":"Point","coordinates":[28.692932,41.337817]}},{"type":"Feature","properties":{"ad":"Çiftlık Mahallesi"},"geometry":{"type":"Point","coordinates":[28.679698,41.329149]}},{"type":"Feature","properties":{"ad":"Baklalı Caddesi"},"geometry":{"type":"Point","coordinates":[28.654966,41.260543]}},{"type":"Feature","properties":{"ad":"Malatyalilar"},"geometry":{"type":"Point","coordinates":[28.676249,41.263396]}},{"type":"Feature","properties":{"ad":"Karaburun Yolu"},"geometry":{"type":"Point","coordinates":[28.67411,41.321516]}},{"type":"Feature","properties":{"ad":"Genç Sokak"},"geometry":{"type":"Point","coordinates":[28.664043,41.285192]}},{"type":"Feature","properties":{"ad":"Karaburun Köyiçi"},"geometry":{"type":"Point","coordinates":[28.682665,41.346282]}},{"type":"Feature","properties":{"ad":"Kumsal Sokak"},"geometry":{"type":"Point","coordinates":[28.688816,41.339777]}},{"type":"Feature","properties":{"ad":"Yosun Sokak"},"geometry":{"type":"Point","coordinates":[28.69847,41.335571]}},{"type":"Feature","properties":{"ad":"Kumsal Sokak"},"geometry":{"type":"Point","coordinates":[28.688695,41.339714]}},{"type":"Feature","properties":{"ad":"Bağlar"},"geometry":{"type":"Point","coordinates":[28.691454,41.271702]}},{"type":"Feature","properties":{"ad":"Kale Viraji"},"geometry":{"type":"Point","coordinates":[28.673966,41.318089]}},{"type":"Feature","properties":{"ad":"Dursunköy Boyalık Caddesi"},"geometry":{"type":"Point","coordinates":[28.634859,41.26838]}},{"type":"Feature","properties":{"ad":"Dursunköy Caddesii"},"geometry":{"type":"Point","coordinates":[28.638287,41.202228]}},{"type":"Feature","properties":{"ad":"Atatürk Caddesi"},"geometry":{"type":"Point","coordinates":[28.649873,41.231179]}},{"type":"Feature","properties":{"ad":"Sonay Sokak"},"geometry":{"type":"Point","coordinates":[28.659862,41.27006]}},{"type":"Feature","properties":{"ad":"Boyalık Piknik Alani"},"geometry":{"type":"Point","coordinates":[28.642827,41.277467]}},{"type":"Feature","properties":{"ad":"Piknik Alani"},"geometry":{"type":"Point","coordinates":[28.668423,41.295674]}},{"type":"Feature","properties":{"ad":"Çitlembik Sokak"},"geometry":{"type":"Point","coordinates":[28.637829,41.224147]}},{"type":"Feature","properties":{"ad":"Yeniköy"},"geometry":{"type":"Point","coordinates":[28.722894,41.318079]}},{"type":"Feature","properties":{"ad":"Yeniköy Sağlık Ocaği"},"geometry":{"type":"Point","coordinates":[28.719212,41.319654]}},{"type":"Feature","properties":{"ad":"Karaburun Yolu"},"geometry":{"type":"Point","coordinates":[28.674243,41.320633]}},{"type":"Feature","properties":{"ad":"Dursunköy"},"geometry":{"type":"Point","coordinates":[28.635949,41.203532]}},{"type":"Feature","properties":{"ad":"Kale Kapi"},"geometry":{"type":"Point","coordinates":[28.682411,41.344043]}},{"type":"Feature","properties":{"ad":"Meşelık Sokak"},"geometry":{"type":"Point","coordinates":[28.671297,41.265673]}},{"type":"Feature","properties":{"ad":"Sur Caddesi"},"geometry":{"type":"Point","coordinates":[28.664562,41.312181]}},{"type":"Feature","properties":{"ad":"Yeni Mahalle"},"geometry":{"type":"Point","coordinates":[28.63298,41.237168]}},{"type":"Feature","properties":{"ad":"Germe"},"geometry":{"type":"Point","coordinates":[28.661184,41.274811]}},{"type":"Feature","properties":{"ad":"Baklali Hacimaşli Caddesi"},"geometry":{"type":"Point","coordinates":[28.657094,41.263676]}},{"type":"Feature","properties":{"ad":"Boyalık Caddesi"},"geometry":{"type":"Point","coordinates":[28.634711,41.287002]}},{"type":"Feature","properties":{"ad":"Kale Viraji"},"geometry":{"type":"Point","coordinates":[28.674137,41.318193]}},{"type":"Feature","properties":{"ad":"Yosun Sokak"},"geometry":{"type":"Point","coordinates":[28.698515,41.335686]}},{"type":"Feature","properties":{"ad":"Yassiören"},"geometry":{"type":"Point","coordinates":[28.597821,41.235698]}},{"type":"Feature","properties":{"ad":"Tayakadin"},"geometry":{"type":"Point","coordinates":[28.690879,41.270156]}},{"type":"Feature","properties":{"ad":"Dursunköy"},"geometry":{"type":"Point","coordinates":[28.636606,41.203848]}},{"type":"Feature","properties":{"ad":"Yeni Mahalle"},"geometry":{"type":"Point","coordinates":[28.633314,41.236531]}},{"type":"Feature","properties":{"ad":"Dursunköy Baklali Caddesi"},"geometry":{"type":"Point","coordinates":[28.642514,41.209648]}},{"type":"Feature","properties":{"ad":"Gülhane Sokak"},"geometry":{"type":"Point","coordinates":[28.66419,41.288164]}},{"type":"Feature","properties":{"ad":"Dursunköy Baklali Caddesi"},"geometry":{"type":"Point","coordinates":[28.641829,41.207937]}},{"type":"Feature","properties":{"ad":"Şenlık Sokak"},"geometry":{"type":"Point","coordinates":[28.679854,41.335942]}},{"type":"Feature","properties":{"ad":"Tatil Caddesi"},"geometry":{"type":"Point","coordinates":[28.720378,41.323068]}},{"type":"Feature","properties":{"ad":"11 Evler Mahallesi"},"geometry":{"type":"Point","coordinates":[28.668462,41.309017]}},{"type":"Feature","properties":{"ad":"Yeniköy Sağlık Ocaği"},"geometry":{"type":"Point","coordinates":[28.719289,41.319707]}},{"type":"Feature","properties":{"ad":"Sahil Yolu-1"},"geometry":{"type":"Point","coordinates":[28.692853,41.337994]}},{"type":"Feature","properties":{"ad":"Çitlembik Sokak"},"geometry":{"type":"Point","coordinates":[28.637973,41.223398]}},{"type":"Feature","properties":{"ad":"Boyalık Yolu"},"geometry":{"type":"Point","coordinates":[28.643695,41.214119]}},{"type":"Feature","properties":{"ad":"Yassiören Yolu"},"geometry":{"type":"Point","coordinates":[28.612704,41.27846]}},{"type":"Feature","properties":{"ad":"Balaban Sapağı"},"geometry":{"type":"Point","coordinates":[28.632583,41.280935]}},{"type":"Feature","properties":{"ad":"Yassiören"},"geometry":{"type":"Point","coordinates":[28.596822,41.235572]}},{"type":"Feature","properties":{"ad":"Balaban Yolu"},"geometry":{"type":"Point","coordinates":[28.629307,41.307812]}},{"type":"Feature","properties":{"ad":"Balaban Köyü"},"geometry":{"type":"Point","coordinates":[28.613609,41.312231]}},{"type":"Feature","properties":{"ad":"Boyalık Caddesi"},"geometry":{"type":"Point","coordinates":[28.634617,41.287066]}},{"type":"Feature","properties":{"ad":"Karaburun Limani"},"geometry":{"type":"Point","coordinates":[28.685027,41.341741]}},{"type":"Feature","properties":{"ad":"Boyalık Köyü"},"geometry":{"type":"Point","coordinates":[28.628662,41.262721]}},{"type":"Feature","properties":{"ad":"Şenlık Sokak"},"geometry":{"type":"Point","coordinates":[28.679733,41.33597]}},{"type":"Feature","properties":{"ad":"Dursunköy Boyalık Caddesi"},"geometry":{"type":"Point","coordinates":[28.634436,41.268396]}},{"type":"Feature","properties":{"ad":"İSKİ Su Medeniyetleri Müzesi"},"geometry":{"type":"Point","coordinates":[28.673833,41.302255]}},{"type":"Feature","properties":{"ad":"Sahil Yolu-2"},"geometry":{"type":"Point","coordinates":[28.704262,41.333635]}},{"type":"Feature","properties":{"ad":"Bilgealp Sokak"},"geometry":{"type":"Point","coordinates":[28.635983,41.229238]}},{"type":"Feature","properties":{"ad":"Balaban Yolu"},"geometry":{"type":"Point","coordinates":[28.61496,41.310561]}},{"type":"Feature","properties":{"ad":"Karaburun Limani"},"geometry":{"type":"Point","coordinates":[28.685102,41.341905]}},{"type":"Feature","properties":{"ad":"Baklalı Köyü"},"geometry":{"type":"Point","coordinates":[28.653143,41.25808]}},{"type":"Feature","properties":{"ad":"Tayakadin"},"geometry":{"type":"Point","coordinates":[28.690967,41.270091]}},{"type":"Feature","properties":{"ad":"Baklali Hacimaşli Caddesi"},"geometry":{"type":"Point","coordinates":[28.657097,41.264266]}},{"type":"Feature","properties":{"ad":"Tayakadin İlkokulu"},"geometry":{"type":"Point","coordinates":[28.689825,41.268122]}},{"type":"Feature","properties":{"ad":"Germe"},"geometry":{"type":"Point","coordinates":[28.66119,41.273692]}},{"type":"Feature","properties":{"ad":"Yeniköy Sahil"},"geometry":{"type":"Point","coordinates":[28.721805,41.326604]}},{"type":"Feature","properties":{"ad":"Malatyalilar"},"geometry":{"type":"Point","coordinates":[28.676179,41.263323]}},{"type":"Feature","properties":{"ad":"Çiftlık"},"geometry":{"type":"Point","coordinates":[28.63623,41.306288]}},{"type":"Feature","properties":{"ad":"Kale Kapi"},"geometry":{"type":"Point","coordinates":[28.682287,41.344037]}},{"type":"Feature","properties":{"ad":"Tayakadin Yassiören Caddesi"},"geometry":{"type":"Point","coordinates":[28.681504,41.263846]}},{"type":"Feature","properties":{"ad":"Selçukbey Sokak"},"geometry":{"type":"Point","coordinates":[28.681085,41.342211]}},{"type":"Feature","properties":{"ad":"Tayakadin Tepe"},"geometry":{"type":"Point","coordinates":[28.685871,41.264525]}},{"type":"Feature","properties":{"ad":"Tayakadin Köyiçi"},"geometry":{"type":"Point","coordinates":[28.694238,41.272734]}},{"type":"Feature","properties":{"ad":"Boyalık Aritma Tesisi"},"geometry":{"type":"Point","coordinates":[28.63065,41.251553]}},{"type":"Feature","properties":{"ad":"Balaban Sapağı"},"geometry":{"type":"Point","coordinates":[28.632779,41.280927]}},{"type":"Feature","properties":{"ad":"Durusu Aile Sağliği Merkezi"},"geometry":{"type":"Point","coordinates":[28.681274,41.305089]}},{"type":"Feature","properties":{"ad":"İshak Paşa Sokak"},"geometry":{"type":"Point","coordinates":[28.709213,41.331934]}},{"type":"Feature","properties":{"ad":"Boyalık Aritma Tesisi"},"geometry":{"type":"Point","coordinates":[28.630738,41.25158]}},{"type":"Feature","properties":{"ad":"Eski Edirne Asfaltı Caddesi"},"geometry":{"type":"Point","coordinates":[28.589919,41.246416]}},{"type":"Feature","properties":{"ad":"Genç Sokak"},"geometry":{"type":"Point","coordinates":[28.663958,41.285543]}},{"type":"Feature","properties":{"ad":"Selçukbey Sokak"},"geometry":{"type":"Point","coordinates":[28.68117,41.342167]}},{"type":"Feature","properties":{"ad":"Boyalık Piknik Alani"},"geometry":{"type":"Point","coordinates":[28.642325,41.277231]}},{"type":"Feature","properties":{"ad":"Sur Caddesi"},"geometry":{"type":"Point","coordinates":[28.664718,41.312293]}},{"type":"Feature","properties":{"ad":"Terkos Camii"},"geometry":{"type":"Point","coordinates":[28.675871,41.303573]}},{"type":"Feature","properties":{"ad":"Durusu Hüseyin Ökten Anadolu Lisesi"},"geometry":{"type":"Point","coordinates":[28.671882,41.306503]}},{"type":"Feature","properties":{"ad":"Tayakadin Mezarlık"},"geometry":{"type":"Point","coordinates":[28.688153,41.266028]}},{"type":"Feature","properties":{"ad":"Sahil Caddesi"},"geometry":{"type":"Point","coordinates":[28.718034,41.328048]}},{"type":"Feature","properties":{"ad":"Tayakadin Mezarlık"},"geometry":{"type":"Point","coordinates":[28.68818,41.265906]}},{"type":"Feature","properties":{"ad":"Tatil Caddesi"},"geometry":{"type":"Point","coordinates":[28.720506,41.323054]}},{"type":"Feature","properties":{"ad":"Tayakadin Yassiören Caddesi"},"geometry":{"type":"Point","coordinates":[28.681495,41.263973]}},{"type":"Feature","properties":{"ad":"Yeniköy Sahil"},"geometry":{"type":"Point","coordinates":[28.721739,41.326508]}},{"type":"Feature","properties":{"ad":"Çiftlık"},"geometry":{"type":"Point","coordinates":[28.636181,41.306208]}},{"type":"Feature","properties":{"ad":"İSKİ Su Medeniyetleri Müzesi"},"geometry":{"type":"Point","coordinates":[28.673943,41.30259]}},{"type":"Feature","properties":{"ad":"Durusu Hüseyin Ökten Anadolu Lisesi"},"geometry":{"type":"Point","coordinates":[28.671947,41.306594]}},{"type":"Feature","properties":{"ad":"Balaban Camii"},"geometry":{"type":"Point","coordinates":[28.612006,41.31067]}},{"type":"Feature","properties":{"ad":"Karaburun Merkez"},"geometry":{"type":"Point","coordinates":[28.680571,41.338021]}},{"type":"Feature","properties":{"ad":"Piknik Alani"},"geometry":{"type":"Point","coordinates":[28.668329,41.295805]}},{"type":"Feature","properties":{"ad":"Tayakadin Tepe"},"geometry":{"type":"Point","coordinates":[28.685941,41.264417]}},{"type":"Feature","properties":{"ad":"Boyalık Yolu"},"geometry":{"type":"Point","coordinates":[28.643263,41.214854]}},{"type":"Feature","properties":{"ad":"Boyalık Köyü"},"geometry":{"type":"Point","coordinates":[28.628379,41.2627]}},{"type":"Feature","properties":{"ad":"İshak Paşa Sokak"},"geometry":{"type":"Point","coordinates":[28.708681,41.331992]}},{"type":"Feature","properties":{"ad":"Karaburun Köyiçi"},"geometry":{"type":"Point","coordinates":[28.682793,41.346241]}},{"type":"Feature","properties":{"ad":"Darülaceze Arnavutköy"},"geometry":{"type":"Point","coordinates":[28.59174,41.244016]}},{"type":"Feature","properties":{"ad":"Baklalı Caddesi"},"geometry":{"type":"Point","coordinates":[28.655424,41.260794]}},{"type":"Feature","properties":{"ad":"Karaburun Merkez"},"geometry":{"type":"Point","coordinates":[28.680439,41.337988]}},{"type":"Feature","properties":{"ad":"Çiftlık Mahallesi"},"geometry":{"type":"Point","coordinates":[28.677863,41.329546]}},{"type":"Feature","properties":{"ad":"Terkos"},"geometry":{"type":"Point","coordinates":[28.674059,41.300607]}},{"type":"Feature","properties":{"ad":"Baklalı Köyü"},"geometry":{"type":"Point","coordinates":[28.653563,41.258757]}},{"type":"Feature","properties":{"ad":"Mesire Yeri"},"geometry":{"type":"Point","coordinates":[28.696383,41.237346]}},{"type":"Feature","properties":{"ad":"Çamlıktepe"},"geometry":{"type":"Point","coordinates":[28.701057,41.231731]}},{"type":"Feature","properties":{"ad":"Terkos Yolu"},"geometry":{"type":"Point","coordinates":[28.707089,41.224939]}},{"type":"Feature","properties":{"ad":"Çamlık Mahallesi"},"geometry":{"type":"Point","coordinates":[28.708353,41.220921]}},{"type":"Feature","properties":{"ad":"Fatih Caddesi"},"geometry":{"type":"Point","coordinates":[28.712428,41.211875]}},{"type":"Feature","properties":{"ad":"Çardaktepe"},"geometry":{"type":"Point","coordinates":[28.72911,41.20584]}},{"type":"Feature","properties":{"ad":"Bolluca"},"geometry":{"type":"Point","coordinates":[28.763977,41.197857]}},{"type":"Feature","properties":{"ad":"Bolluca Yolu"},"geometry":{"type":"Point","coordinates":[28.761805,41.196009]}},{"type":"Feature","properties":{"ad":"Yıldırım Beyazıt Caddesi"},"geometry":{"type":"Point","coordinates":[28.758141,41.195114]}},{"type":"Feature","properties":{"ad":"Arnavutköy Su Deposu"},"geometry":{"type":"Point","coordinates":[28.752719,41.194281]}},{"type":"Feature","properties":{"ad":"Mustafa Kemal"},"geometry":{"type":"Point","coordinates":[28.749339,41.19242]}},{"type":"Feature","properties":{"ad":"Arnavutköy Belediye"},"geometry":{"type":"Point","coordinates":[28.720612,41.185242]}},{"type":"Feature","properties":{"ad":"Arnavutköy Şehir Parkı"},"geometry":{"type":"Point","coordinates":[28.747318,41.179737]}}]}